NORAD_CAT_ID,OBJECT_NAME,OBJECT_TYPE,EPOCH,MEAN_MOTION,ECCENTRICITY,INCLINATION,RA_OF_ASC_NODE,ARG_OF_PERICENTER,MEAN_ANOMALY,BSTAR,MEAN_MOTION_DOT,MEAN_MOTION_DDOT,TLE_LINE0,TLE_LINE1,TLE_LINE2,SEMIMAJOR_AXIS,PERIOD,APOGEE,PERIGEE,DECAYED
55961.0,STARLINK-5933,PAYLOAD,2023-04-19 08:14:50,15.69936797,0.0002929,70.0015,89.4647,252.2531,107.8346,5.6688e-05,6.612e-05,0.0,0 STARLINK-5933,1 55961U 23037AZ  23109.34364030  .00006612  00000-0  56688-4 0  9991,2 55961  70.0015  89.4647 0002929 252.2531 107.8346 15.69936797  5647,6737.215,91.723,361.053,357.106,0.0
55961.0,STARLINK-5933,PAYLOAD,2023-04-19 15:53:36,15.69918876,0.0003489,70.0013,88.5674,258.9018,101.1785,-5.8923e-06,-9.21e-06,0.0,0 STARLINK-5933,1 55961U 23037AZ  23109.66222737 -.00000921  00000-0 -58923-5 0  9997,2 55961  70.0013  88.5674 0003489 258.9018 101.1785 15.69918876  5350,6737.266,91.724,361.482,356.78,0.0
55961.0,STARLINK-5933,PAYLOAD,2023-04-20 01:04:07,15.69932103,0.0003027,70.0034,87.4928,259.0476,101.038,5.7846e-05,6.75e-05,0.0,0 STARLINK-5933,1 55961U 23037AZ  23110.04452718  .00006750  00000-0  57846-4 0  9991,2 55961  70.0034  87.4928 0003027 259.0476 101.0380 15.69932103  5754,6737.228,91.724,361.133,357.054,0.0
55961.0,STARLINK-5933,PAYLOAD,2023-04-20 08:42:53,15.698947,0.0002733,70.0031,86.5975,276.2893,83.7991,-0.00011672,-0.00014204,0.0,0 STARLINK-5933,1 55961U 23037AZ  23110.36311717 -.00014204  00000-0 -11672-3 0  9990,2 55961  70.0031  86.5975 0002733 276.2893  83.7991 15.69894700  5462,6737.335,91.726,361.042,357.359,0.0
55961.0,STARLINK-5933,PAYLOAD,2023-04-21 01:32:15,15.69605616,0.0004175,70.0022,84.6267,326.0651,34.0277,-0.0015599,-0.00181424,0.0,0 STARLINK-5933,1 55961U 23037AZ  23111.06406699 -.00181424  00000-0 -15599-2 0  9992,2 55961  70.0022  84.6267 0004175 326.0651  34.0277 15.69605616  5915,6738.162,91.743,362.841,357.214,0.0
55961.0,STARLINK-5933,PAYLOAD,2023-04-21 21:25:21,15.69421716,0.0002536,70.0027,82.2991,335.1098,24.9974,-0.00079027,-0.00092252,0.0,0 STARLINK-5933,1 55961U 23037AZ  23111.89261558 -.00092252  00000-0 -79027-3 0  9993,2 55961  70.0027  82.2991 0002536 335.1098  24.9974 15.69421716  5709,6738.689,91.754,362.263,358.845,0.0
55961.0,STARLINK-5933,PAYLOAD,2023-04-22 09:38:55,15.70002643,0.0003206,70.0026,80.8653,270.6177,89.4651,0.00037488,0.00045253,0.0,0 STARLINK-5933,1 55961U 23037AZ  23112.40202879  .00045253  00000-0  37488-3 0  9994,2 55961  70.0026  80.8653 0003206 270.6177  89.4651 15.70002643  6124,6737.026,91.72,361.051,356.732,0.0
55961.0,STARLINK-5933,PAYLOAD,2023-04-23 00:56:28,15.69923666,0.0002641,70.0031,79.0743,228.8517,131.2451,1.2564e-05,1.299e-05,0.0,0 STARLINK-5933,1 55961U 23037AZ  23113.03921439  .00001299  00000-0  12564-4 0  9995,2 55961  70.0031  79.0743 0002641 228.8517 131.2451 15.69923666  5886,6737.252,91.724,360.897,357.338,0.0
55961.0,STARLINK-5933,PAYLOAD,2023-04-23 20:49:15,15.69925352,0.0003023,70.0027,76.7456,234.7403,125.351,0.00012472,0.0001481,0.0,0 STARLINK-5933,1 55961U 23037AZ  23113.86753575  .00014810  00000-0  12472-3 0  9990,2 55961  70.0027  76.7456 0003023 234.7403 125.3510 15.69925352  6011,6737.248,91.724,361.149,357.076,0.0
55961.0,STARLINK-5933,PAYLOAD,2023-04-23 23:52:44,15.69941471,0.000276,70.0031,76.3873,231.3481,128.7468,7.677e-05,9.034e-05,0.0,0 STARLINK-5933,1 55961U 23037AZ  23113.99496106  .00009034  00000-0  76770-4 0  9992,2 55961  70.0031  76.3873 0002760 231.3481 128.7468 15.69941471  6379,6737.201,91.723,360.926,357.207,0.0
55961.0,STARLINK-5933,PAYLOAD,2023-04-25 06:27:48,15.6987519,0.0002743,70.0034,72.8049,252.3758,107.7139,-0.00019242,-0.00023236,0.0,0 STARLINK-5933,1 55961U 23037AZ  23115.26930595 -.00023236  00000-0 -19242-3 0  9991,2 55961  70.0034  72.8049 0002743 252.3758 107.7139 15.69875190  6230,6737.391,91.727,361.104,357.408,0.0
55961.0,STARLINK-5933,PAYLOAD,2023-04-26 06:55:49,15.69941194,0.0003058,70.0035,69.939,269.2259,90.8586,0.00011783,0.00013988,0.0,0 STARLINK-5933,1 55961U 23037AZ  23116.28877064  .00013988  00000-0  11783-3 0  9998,2 55961  70.0035  69.9390 0003058 269.2259  90.8586 15.69941194  6393,6737.202,91.723,361.127,357.007,0.0
55961.0,STARLINK-5933,PAYLOAD,2023-04-26 14:34:35,15.69949549,0.0003791,70.0032,69.0425,284.4835,75.594,9.285e-05,0.00010979,0.0,0 STARLINK-5933,1 55961U 23037AZ  23116.60734976  .00010979  00000-0  92850-4 0  9990,2 55961  70.0032  69.0425 0003791 284.4835  75.5940 15.69949549  6445,6737.178,91.723,361.597,356.489,0.0
55961.0,STARLINK-5933,PAYLOAD,2023-04-27 02:48:36,15.69935546,0.0003571,70.0026,67.6112,281.4167,78.6627,5.6861e-05,6.633e-05,0.0,0 STARLINK-5933,1 55961U 23037AZ  23117.11708515  .00006633  00000-0  56861-4 0  9991,2 55961  70.0026  67.6112 0003571 281.4167  78.6627 15.69935546  6860,6737.218,91.724,361.489,356.678,0.0
55961.0,STARLINK-5933,PAYLOAD,2023-04-27 07:23:52,15.69911344,0.00031,70.0023,67.0734,279.4272,80.6573,-1.7632e-05,-2.331e-05,0.0,0 STARLINK-5933,1 55961U 23037AZ  23117.30824378 -.00002331  00000-0 -17632-4 0  9994,2 55961  70.0023  67.0734 0003100 279.4272  80.6573 15.69911344  6552,6737.288,91.725,361.241,357.064,0.0
55961.0,STARLINK-5933,PAYLOAD,2023-04-27 21:09:37,15.69930897,0.0003576,70.0022,65.4622,287.5396,72.5409,-4.572e-06,-7.63e-06,0.0,0 STARLINK-5933,1 55961U 23037AZ  23117.88168540 -.00000763  00000-0 -45720-5 0  9996,2 55961  70.0022  65.4622 0003576 287.5396  72.5409 15.69930897  6982,6737.232,91.724,361.506,356.687,0.0
55961.0,STARLINK-5933,PAYLOAD,2023-04-28 06:20:08,15.69912686,0.0003269,70.0014,64.3835,275.1679,84.9144,-4.7573e-05,-5.926e-05,0.0,0 STARLINK-5933,1 55961U 23037AZ  23118.26399092 -.00005926  00000-0 -47573-4 0  9990,2 55961  70.0014  64.3835 0003269 275.1679  84.9144 15.69912686  7040,6737.284,91.725,361.351,356.946,0.0
55961.0,STARLINK-5933,PAYLOAD,2023-04-28 20:05:54,15.69925662,0.0003933,70.0006,62.7736,273.9118,86.1628,1.743e-05,1.884e-05,0.0,0 STARLINK-5933,1 55961U 23037AZ  23118.83743636  .00001884  00000-0  17430-4 0  9996,2 55961  70.0006  62.7736 0003933 273.9118  86.1628 15.69925662  7134,6737.247,91.724,361.761,356.462,0.0
55961.0,STARLINK-5933,PAYLOAD,2023-04-29 05:16:25,15.69936116,0.0003674,70.0007,61.6987,276.2358,83.8419,5.6336e-05,6.57e-05,0.0,0 STARLINK-5933,1 55961U 23037AZ  23119.21973399  .00006570  00000-0  56336-4 0  9995,2 55961  70.0007  61.6987 0003674 276.2358  83.8419 15.69936116  6851,6737.217,91.723,361.557,356.607,0.0
55961.0,STARLINK-5933,PAYLOAD,2023-04-29 23:37:26,15.69920325,0.0003184,70.0016,59.5477,268.0602,92.0229,1.4979e-05,1.589e-05,0.0,0 STARLINK-5933,1 55961U 23037AZ  23119.98433994  .00001589  00000-0  14979-4 0  9993,2 55961  70.0016  59.5477 0003184 268.0602  92.0229 15.69920325  7316,6737.262,91.724,361.272,356.982,0.0
55961.0,STARLINK-5933,PAYLOAD,2023-04-30 07:16:12,15.69919802,0.0003202,70.0017,58.6521,268.6712,91.4117,9.9944e-06,9.89e-06,0.0,0 STARLINK-5933,1 55961U 23037AZ  23120.30292438  .00000989  00000-0  99944-5 0  9996,2 55961  70.0017  58.6521 0003202 268.6712  91.4117 15.69919802  7021,6737.263,91.724,361.286,356.971,0.0
55961.0,STARLINK-5933,PAYLOAD,2023-05-01 04:40:44,15.69928524,0.0003207,69.9995,56.1437,270.1656,89.9173,5.5832e-06,4.59e-06,0.0,0 STARLINK-5933,1 55961U 23037AZ  23121.19495640  .00000459  00000-0  55832-5 0  9994,2 55961  69.9995  56.1437 0003207 270.1656  89.9173 15.69928524  7500,6737.238,91.724,361.264,356.943,0.0
55961.0,STARLINK-5933,PAYLOAD,2023-05-01 21:30:00,15.69930502,0.0003094,69.9998,54.1719,268.1305,91.9536,1.5646e-05,1.669e-05,0.0,0 STARLINK-5933,1 55961U 23037AZ  23121.89583803  .00001669  00000-0  15646-4 0  9992,2 55961  69.9998  54.1719 0003094 268.1305  91.9536 15.69930502  7275,6737.233,91.724,361.182,357.013,0.0
55961.0,STARLINK-5933,PAYLOAD,2023-05-02 05:08:46,15.69928261,0.0003268,70.0011,53.2762,269.7697,90.3124,1.5717e-05,1.678e-05,0.0,0 STARLINK-5933,1 55961U 23037AZ  23122.21442302  .00001678  00000-0  15717-4 0  9996,2 55961  70.0011  53.2762 0003268 269.7697  90.3124 15.69928261  7664,6737.239,91.724,361.306,356.903,0.0
55961.0,STARLINK-5933,PAYLOAD,2023-05-03 05:36:47,15.69934826,0.0003141,70.0034,50.414,273.9732,86.1104,2.8579e-05,3.227e-05,0.0,0 STARLINK-5933,1 55961U 23037AZ  23123.23388738  .00003227  00000-0  28579-4 0  9993,2 55961  70.0034  50.4140 0003141 273.9732  86.1104 15.69934826  7828,6737.22,91.724,361.202,356.969,0.0
55961.0,STARLINK-5933,PAYLOAD,2023-05-03 19:22:34,15.69918842,0.0003453,70.0022,48.8003,269.0021,91.0779,-3.2744e-06,-6.06e-06,0.0,0 STARLINK-5933,1 55961U 23037AZ  23123.80734487 -.00000606  00000-0 -32744-5 0  9992,2 55961  70.0022  48.8003 0003453 269.0021  91.0779 15.69918842  7910,6737.266,91.724,361.458,356.805,0.0
55961.0,STARLINK-5933,PAYLOAD,2023-05-03 20:54:19,15.69917181,0.0003685,70.0017,48.6212,267.635,92.4424,-6.9212e-06,-1.045e-05,0.0,0 STARLINK-5933,1 55961U 23037AZ  23123.87106231 -.00001045  00000-0 -69212-5 0  9997,2 55961  70.0017  48.6212 0003685 267.6350  92.4424 15.69917181  7580,6737.271,91.725,361.619,356.653,0.0
55961.0,STARLINK-5933,PAYLOAD,2023-05-04 03:01:19,15.69929218,0.0003375,70.0018,47.906,264.7226,95.3585,-9.9935e-06,-1.414e-05,0.0,0 STARLINK-5933,1 55961U 23037AZ  23124.12592385 -.00001414  00000-0 -99935-5 0  9990,2 55961  70.0018  47.9060 0003375 264.7226  95.3585 15.69929218  7966,6737.237,91.724,361.375,356.828,0.0
55961.0,STARLINK-5933,PAYLOAD,2023-05-04 04:33:05,15.69925041,0.0003393,70.0019,47.7271,263.7413,96.3396,1.008e-05,1e-05,0.0,0 STARLINK-5933,1 55961U 23037AZ  23124.18964321  .00001000  00000-0  10080-4 0  9991,2 55961  70.0019  47.7271 0003393 263.7413  96.3396 15.69925041  7631,6737.248,91.724,361.399,356.828,0.0
55961.0,STARLINK-5933,PAYLOAD,2023-05-04 21:22:21,15.69928048,0.0003241,70.0023,45.7558,254.684,105.3998,7.6677e-06,7.1e-06,0.0,0 STARLINK-5933,1 55961U 23037AZ  23124.89052730  .00000710  00000-0  76677-5 0  9993,2 55961  70.0023  45.7558 0003241 254.6840 105.3998 15.69928048  7748,6737.24,91.724,361.288,356.921,0.0
